[{"OBJECT_NAME":"STARLINK-30161","OBJECT_ID":"2023-107V","EPOCH":"2026-03-08T03:18:12.420864","MEAN_MOTION":15.26741769,"ECCENTRICITY":0.00028074,"INCLINATION":43.0039,"RA_OF_ASC_NODE":344.5252,"ARG_OF_PERICENTER":264.6186,"MEAN_ANOMALY":95.4345,"EPHEMERIS_TYPE":0,"CLASSIFICATION_TYPE":"U","NORAD_CAT_ID":57476,"ELEMENT_SET_NO":999,"REV_AT_EPOCH":14491,"BSTAR":-2.4473232e-5,"MEAN_MOTION_DOT":-9.17e-6,"MEAN_MOTION_DDOT":0},{"OBJECT_NAME":"EXPLORER 11","OBJECT_ID":"1961-013A","EPOCH":"2026-03-09T10:05:52.450080","MEAN_MOTION":14.21739623,"ECCENTRICITY":0.04946829,"INCLINATION":28.7774,"RA_OF_ASC_NODE":171.5314,"ARG_OF_PERICENTER":276.7085,"MEAN_ANOMALY":77.745,"EPHEMERIS_TYPE":0,"CLASSIFICATION_TYPE":"U","NORAD_CAT_ID":107,"ELEMENT_SET_NO":999,"REV_AT_EPOCH":26228,"BSTAR":0.00050011847,"MEAN_MOTION_DOT":4.224e-5,"MEAN_MOTION_DDOT":0}]
